25042,IRIDIUM 39,1997,99.37,-1.0,-,86.39,Inactive,0,LEO,USA,USA,Unknown,Unknown,Unknown,1 25042U 97069D   25107.84940296  .00001523  00000+0  39467-3 0  9993,2 25042  86.3921 236.9821 0019235 143.5202 216.7316 14.49119947440229,14.49119947,0.0019235,LEO
25043,IRIDIUM 38,1997,100.14,-1.0,-,86.39,Inactive,0,LEO,USA,USA,Unknown,Unknown,Unknown,1 25043U 97069E   25107.91190564  .00000964  00000+0  31226-3 0  9990,2 25043  86.3923 258.5108 0000804  28.2892 331.8350 14.38046297437291,14.38046297,8.04e-05,LEO
25077,IRIDIUM 42,1997,100.26,-1.0,-,86.39,Inactive,0,LEO,PRC,USA,Unknown,Unknown,Unknown,1 25077U 97077A   25107.91384687  .00000893  00000+0  29914-3 0  9999,2 25077  86.3918 264.6104 0001607  75.4050 284.7325 14.36286897432549,14.36286897,0.0001607,LEO
25078,IRIDIUM 44,1997,99.99,-1.0,-,86.39,Inactive,0,LEO,PRC,USA,Unknown,Unknown,Unknown,1 25078U 97077B   25107.89198366  .00000911  00000+0  28207-3 0  9999,2 25078  86.3947 246.6898 0001616 152.5413 207.5872 14.40177092435029,14.40177092,0.0001616,LEO
25104,IRIDIUM 45,1997,94.75,-1.0,-,86.36,Inactive,0,LEO,USA,USA,Unknown,Unknown,Unknown,1 25104U 97082A   25107.93032416  .00022098  00000+0  84292-3 0  9999,2 25104  86.3567  77.0960 0121616 195.3889 164.3645 15.19805746442889,15.19805746,0.0121616,LEO
25105,IRIDIUM 24,1997,99.86,-1.0,-,86.39,Inactive,0,LEO,USA,USA,Unknown,Unknown,Unknown,1 25105U 97082B   25108.08117691  .00000976  00000+0  29146-3 0  9994,2 25105  86.3856 105.8021 0009072 279.0491  80.9682 14.42020071434801,14.42020071,0.0009072,LEO
25262,IRIDIUM 51,1998,93.82,-1.0,-,86.38,Inactive,0,LEO,PRC,USA,Unknown,Unknown,Unknown,1 25262U 98018A   25107.95966785  .00040245  00000+0  10114-2 0  9996,2 25262  86.3821  85.5492 0099406 119.9594 241.1573 15.34759034437778,15.34759034,0.0099406,LEO
25273,IRIDIUM 57,1998,100.29,-1.0,-,86.4,Inactive,0,LEO,USA,USA,Unknown,Unknown,Unknown,1 25273U 98019B   25107.68263582  .00000604  00000+0  20205-3 0  9992,2 25273  86.4013 170.5996 0002202  93.6674 266.4775 14.35844264416101,14.35844264,0.0002202,LEO
